0 DELTA 2 R/B(1)
1 22097U 92057B   13282.65793764  .00000099  00000-0  98070-3 0   756
2 22097 025.2024 026.1346 0506938 228.4046 241.6425 10.92067388843065
0 DELTA 2 R/B(1)
1 22097U 92057B   13286.69679293  .00000092  00000-0  75025-3 0   763
2 22097 025.2023 013.1566 0507013 250.5797 280.1771 10.92067393843505
0 DELTA 2 R/B(1)
1 22097U 92057B   13291.13528257  .00000089  00000-0  69153-3 0   773
2 22097 025.2013 358.8943 0507067 274.9541 089.8500 10.92067601843997
0 DELTA 2 R/B(1)
1 22097U 92057B   13295.45295712  .00000100  00000-0  11178-2 0   787
2 22097 025.2009 345.0218 0507018 298.6682 144.5450 10.92068006844466
